{"type": "FeatureCollection", "features": [{"type": "Feature", "properties": {"norad_id": 26766, "name": "INTELSAT 10 (IS-10)", "group": "intelsat", "lat": 1.7929129886475543, "lon": 72.9660647100855, "alt_km": 36152.06771870806, "timestamp": "2025-12-11T13:55:01.835507+00:00", "meta": {"OBJECT_NAME": "INTELSAT 10 (IS-10)", "OBJECT_ID": "2001-019A", "EPOCH": "2025-12-10T14:14:44.567232", "MEAN_MOTION": 0.99078928, "ECCENTRICITY": 0.00078121, "INCLINATION": 8.625, "RA_OF_ASC_NODE": 61.1789, "ARG_OF_PERICENTER": 223.6466, "MEAN_ANOMALY": 156.4185, "EPHEMERIS_TYPE": 0, "CLASSIFICATION_TYPE": "U", "NORAD_CAT_ID": 26766, "ELEMENT_SET_NO": 999, "REV_AT_EPOCH": 4371, "BSTAR": 0, "MEAN_MOTION_DOT": -2.88e-06, "MEAN_MOTION_DDOT": 0}, "tle": {"line1": "1 26766U 01019A   25344.59357138 -.00000288  00000+0  00000+0 0  9994", "line2": "2 26766   8.6250  61.1789 0007812 223.6466 156.4185  0.99078928 43716"}}, "geometry": {"type": "Point", "coordinates": [72.9660647100855, 1.7929129886475543]}}, {"type": "Feature", "properties": {"norad_id": 26900, "name": "INTELSAT 902 (IS-902)", "group": "intelsat", "lat": 1.4427718269970953, "lon": -120.86463263583495, "alt_km": 35769.43995137438, "timestamp": "2025-12-11T13:55:01.835531+00:00", "meta": {"OBJECT_NAME": "INTELSAT 902 (IS-902)", "OBJECT_ID": "2001-039A", "EPOCH": "2025-12-01T16:59:59.311968", "MEAN_MOTION": 1.00270327, "ECCENTRICITY": 0.00043097, "INCLINATION": 5.6187, "RA_OF_ASC_NODE": 74.2002, "ARG_OF_PERICENTER": 175.119, "MEAN_ANOMALY": 26.3816, "EPHEMERIS_TYPE": 0, "CLASSIFICATION_TYPE": "U", "NORAD_CAT_ID": 26900, "ELEMENT_SET_NO": 999, "REV_AT_EPOCH": 8871, "BSTAR": 0, "MEAN_MOTION_DOT": -2.63e-06, "MEAN_MOTION_DDOT": 0}, "tle": {"line1": "1 26900U 01039A   25335.70832537 -.00000263  00000+0  00000+0 0  9993", "line2": "2 26900   5.6187  74.2002 0004309 175.1190  26.3816  1.00270327 88713"}}, "geometry": {"type": "Point", "coordinates": [-120.86463263583495, 1.4427718269970953]}}, {"type": "Feature", "properties": {"norad_id": 27380, "name": "INTELSAT 904 (IS-904)", "group": "intelsat", "lat": -0.7283142392812298, "lon": -102.25950044622242, "alt_km": 35780.67244434113, "timestamp": "2025-12-11T13:55:01.835548+00:00", "meta": {"OBJECT_NAME": "INTELSAT 904 (IS-904)", "OBJECT_ID": "2002-007A", "EPOCH": "2025-12-11T02:13:33.121344", "MEAN_MOTION": 1.00272878, "ECCENTRICITY": 0.00015327, "INCLINATION": 6.451, "RA_OF_ASC_NODE": 71.4509, "ARG_OF_PERICENTER": 222.2761, "MEAN_ANOMALY": 148.2085, "EPHEMERIS_TYPE": 0, "CLASSIFICATION_TYPE": "U", "NORAD_CAT_ID": 27380, "ELEMENT_SET_NO": 999, "REV_AT_EPOCH": 4988, "BSTAR": 0, "MEAN_MOTION_DOT": -2.21e-06, "MEAN_MOTION_DDOT": 0}, "tle": {"line1": "1 27380U 02007A   25345.09274446 -.00000221  00000+0  00000+0 0  9998", "line2": "2 27380   6.4510  71.4509 0001532 222.2761 148.2085  1.00272878 49889"}}, "geometry": {"type": "Point", "coordinates": [-102.25950044622242, -0.7283142392812298]}}, {"type": "Feature", "properties": {"norad_id": 27426, "name": "DIRECTV 5 (TEMPO 1)", "group": "intelsat", "lat": 4.3079919292228, "lon": 179.16442739414495, "alt_km": 35786.10734377434, "timestamp": "2025-12-11T13:55:01.835562+00:00", "meta": {"OBJECT_NAME": "DIRECTV 5 (TEMPO 1)", "OBJECT_ID": "2002-023A", "EPOCH": "2025-12-11T05:08:38.770368", "MEAN_MOTION": 1.0027173, "ECCENTRICITY": 0.00035247, "INCLINATION": 4.3986, "RA_OF_ASC_NODE": 77.6693, "ARG_OF_PERICENTER": 193.7723, "MEAN_ANOMALY": 135.7724, "EPHEMERIS_TYPE": 0, "CLASSIFICATION_TYPE": "U", "NORAD_CAT_ID": 27426, "ELEMENT_SET_NO": 999, "REV_AT_EPOCH": 8623, "BSTAR": 0, "MEAN_MOTION_DOT": -5.1e-07, "MEAN_MOTION_DDOT": 0}, "tle": {"line1": "1 27426U 02023A   25345.21433762 -.00000051  00000+0  00000+0 0  9990", "line2": "2 27426   4.3986  77.6693 0003524 193.7723 135.7724  1.00271730 86236"}}, "geometry": {"type": "Point", "coordinates": [179.16442739414495, 4.3079919292228]}}, {"type": "Feature", "properties": {"norad_id": 27438, "name": "INTELSAT 905 (IS-905)", "group": "intelsat", "lat": 6.1935437886969265, "lon": 152.00848068044058, "alt_km": 35789.73120560156, "timestamp": "2025-12-11T13:55:01.835574+00:00", "meta": {"OBJECT_NAME": "INTELSAT 905 (IS-905)", "OBJECT_ID": "2002-027A", "EPOCH": "2025-12-10T10:38:24.492192", "MEAN_MOTION": 1.00272307, "ECCENTRICITY": 0.00027995, "INCLINATION": 6.2803, "RA_OF_ASC_NODE": 72.0822, "ARG_OF_PERICENTER": 193.4676, "MEAN_ANOMALY": 196.2661, "EPHEMERIS_TYPE": 0, "CLASSIFICATION_TYPE": "U", "NORAD_CAT_ID": 27438, "ELEMENT_SET_NO": 999, "REV_AT_EPOCH": 4947, "BSTAR": 0, "MEAN_MOTION_DOT": 9.7e-07, "MEAN_MOTION_DDOT": 0}, "tle": {"line1": "1 27438U 02027A   25344.44333903  .00000097  00000+0  00000+0 0  9996", "line2": "2 27438   6.2803  72.0822 0002799 193.4676 196.2661  1.00272307 49476"}}, "geometry": {"type": "Point", "coordinates": [152.00848068044058, 6.1935437886969265]}}, {"type": "Feature", "properties": {"norad_id": 27445, "name": "GALAXY 3C (G-3C)", "group": "intelsat", "lat": 2.9720913515849268, "lon": -165.5271786822704, "alt_km": 35781.36532648654, "timestamp": "2025-12-11T13:55:01.835586+00:00", "meta": {"OBJECT_NAME": "GALAXY 3C (G-3C)", "OBJECT_ID": "2002-030A", "EPOCH": "2025-12-11T05:00:38.584224", "MEAN_MOTION": 1.0027162, "ECCENTRICITY": 0.0001123, "INCLINATION": 3.2606, "RA_OF_ASC_NODE": 80.5234, "ARG_OF_PERICENTER": 92.5456, "MEAN_ANOMALY": 247.402, "EPHEMERIS_TYPE": 0, "CLASSIFICATION_TYPE": "U", "NORAD_CAT_ID": 27445, "ELEMENT_SET_NO": 999, "REV_AT_EPOCH": 4460, "BSTAR": 0, "MEAN_MOTION_DOT": -1.47e-06, "MEAN_MOTION_DDOT": 0}, "tle": {"line1": "1 27445U 02030A   25345.20877991 -.00000147  00000+0  00000+0 0  9990", "line2": "2 27445   3.2606  80.5234 0001123  92.5456 247.4020  1.00271620 44603"}}, "geometry": {"type": "Point", "coordinates": [-165.5271786822704, 2.9720913515849268]}}, {"type": "Feature", "properties": {"norad_id": 27513, "name": "INTELSAT 906 (IS-906)", "group": "intelsat", "lat": -5.269542366389366, "lon": -6.464889122121899, "alt_km": 35785.40094137681, "timestamp": "2025-12-11T13:55:01.835598+00:00", "meta": {"OBJECT_NAME": "INTELSAT 906 (IS-906)", "OBJECT_ID": "2002-041A", "EPOCH": "2025-12-11T05:15:24.712128", "MEAN_MOTION": 1.00271294, "ECCENTRICITY": 0.0006154, "INCLINATION": 5.325, "RA_OF_ASC_NODE": 75.2494, "ARG_OF_PERICENTER": 191.5567, "MEAN_ANOMALY": 316.3613, "EPHEMERIS_TYPE": 0, "CLASSIFICATION_TYPE": "U", "NORAD_CAT_ID": 27513, "ELEMENT_SET_NO": 999, "REV_AT_EPOCH": 8514, "BSTAR": 0, "MEAN_MOTION_DOT": 1.9e-07, "MEAN_MOTION_DDOT": 0}, "tle": {"line1": "1 27513U 02041A   25345.21903602  .00000019  00000+0  00000+0 0  9995", "line2": "2 27513   5.3250  75.2494 0006154 191.5567 316.3613  1.00271294 85143"}}, "geometry": {"type": "Point", "coordinates": [-6.464889122121899, -5.269542366389366]}}, {"type": "Feature", "properties": {"norad_id": 27954, "name": "GALAXY 13 (HORIZONS-1)", "group": "intelsat", "lat": 0.7490948293482165, "lon": 139.26464285804764, "alt_km": 35789.51031366987, "timestamp": "2025-12-11T13:55:01.835610+00:00", "meta": {"OBJECT_NAME": "GALAXY 13 (HORIZONS-1)", "OBJECT_ID": "2003-044A", "EPOCH": "2025-12-11T04:14:15.567648", "MEAN_MOTION": 1.00270843, "ECCENTRICITY": 0.00020347, "INCLINATION": 0.9315, "RA_OF_ASC_NODE": 86.49, "ARG_OF_PERICENTER": 165.3304, "MEAN_ANOMALY": 101.8836, "EPHEMERIS_TYPE": 0, "CLASSIFICATION_TYPE": "U", "NORAD_CAT_ID": 27954, "ELEMENT_SET_NO": 999, "REV_AT_EPOCH": 4468, "BSTAR": 0, "MEAN_MOTION_DOT": 1.39e-06, "MEAN_MOTION_DDOT": 0}, "tle": {"line1": "1 27954U 03044A   25345.17656907  .00000139  00000+0  00000+0 0  9999", "line2": "2 27954   0.9315  86.4900 0002034 165.3304 101.8836  1.00270843 44689"}}, "geometry": {"type": "Point", "coordinates": [139.26464285804764, 0.7490948293482165]}}, {"type": "Feature", "properties": {"norad_id": 28358, "name": "INTELSAT 10-02", "group": "intelsat", "lat": -0.0250448869477273, "lon": -71.69186395445425, "alt_km": 35777.39870141934, "timestamp": "2025-12-11T13:55:01.835623+00:00", "meta": {"OBJECT_NAME": "INTELSAT 10-02", "OBJECT_ID": "2004-022A", "EPOCH": "2025-12-11T03:14:06.328608", "MEAN_MOTION": 1.00278861, "ECCENTRICITY": 0.0002196, "INCLINATION": 0.0236, "RA_OF_ASC_NODE": 64.8116, "ARG_OF_PERICENTER": 267.1758, "MEAN_ANOMALY": 155.6608, "EPHEMERIS_TYPE": 0, "CLASSIFICATION_TYPE": "U", "NORAD_CAT_ID": 28358, "ELEMENT_SET_NO": 999, "REV_AT_EPOCH": 7867, "BSTAR": 0, "MEAN_MOTION_DOT": -4e-08, "MEAN_MOTION_DDOT": 0}, "tle": {"line1": "1 28358U 04022A   25345.13479547 -.00000004  00000+0  00000+0 0  9996", "line2": "2 28358   0.0236  64.8116 0002196 267.1758 155.6608  1.00278861 78671"}}, "geometry": {"type": "Point", "coordinates": [-71.69186395445425, -0.0250448869477273]}}, {"type": "Feature", "properties": {"norad_id": 28626, "name": "XM-3 (RHYTHM)", "group": "intelsat", "lat": -0.07295864987228418, "lon": 49.13908459069232, "alt_km": 36156.78949979518, "timestamp": "2025-12-11T13:55:01.835635+00:00", "meta": {"OBJECT_NAME": "XM-3 (RHYTHM)", "OBJECT_ID": "2005-008A", "EPOCH": "2025-12-11T05:31:45.645888", "MEAN_MOTION": 0.98953084, "ECCENTRICITY": 0.00014728, "INCLINATION": 0.171, "RA_OF_ASC_NODE": 81.3808, "ARG_OF_PERICENTER": 267.9765, "MEAN_ANOMALY": 295.2688, "EPHEMERIS_TYPE": 0, "CLASSIFICATION_TYPE": "U", "NORAD_CAT_ID": 28626, "ELEMENT_SET_NO": 999, "REV_AT_EPOCH": 4073, "BSTAR": 0, "MEAN_MOTION_DOT": -1.97e-06, "MEAN_MOTION_DDOT": 0}, "tle": {"line1": "1 28626U 05008A   25345.23038942 -.00000197  00000+0  00000+0 0  9993", "line2": "2 28626   0.1710  81.3808 0001472 267.9765 295.2688  0.98953084 40739"}}, "geometry": {"type": "Point", "coordinates": [49.13908459069232, -0.07295864987228418]}}]}